{
  "norad_id": 62573,
  "name": "STARLINK-32771",
  "history": [
    {
      "epoch": "2026-03-28T15:20:11.023872Z",
      "apogee_km": 483.64670006236156,
      "perigee_km": 482.170203081183,
      "latitude_deg": 4.561214119980765e-05,
      "longitude_deg": 129.20083663390687,
      "height_km": 482.69559581196114,
      "semi_major_axis_km": 6861.045451571772,
      "eccentricity": 0.0001076,
      "inclination_deg": 43.0005,
      "raan_deg": 185.3033,
      "arg_perigee_deg": 269.1716,
      "mean_anomaly_deg": 90.9013,
      "mean_motion_rev_day": 15.27626971
    },
    {
      "epoch": "2026-03-28T23:10:57.827712Z",
      "apogee_km": 483.1625096630996,
      "perigee_km": 482.7604492922019,
      "latitude_deg": 3.1710264078835134e-05,
      "longitude_deg": 9.33646817640749,
      "height_km": 482.7031132198616,
      "semi_major_axis_km": 6861.0984794776505,
      "eccentricity": 2.93e-05,
      "inclination_deg": 43.0015,
      "raan_deg": 183.4562,
      "arg_perigee_deg": 279.8032,
      "mean_anomaly_deg": 80.2787,
      "mean_motion_rev_day": 15.27609261
    },
    {
      "epoch": "2026-03-29T22:43:16.843008Z",
      "apogee_km": 484.7214343593132,
      "perigee_km": 481.0426931577058,
      "latitude_deg": 1.2995364284740707e-05,
      "longitude_deg": 9.752621705487446,
      "height_km": 482.4806137196975,
      "semi_major_axis_km": 6861.019063758509,
      "eccentricity": 0.00026809,
      "inclination_deg": 42.9986,
      "raan_deg": 177.9183,
      "arg_perigee_deg": 275.5832,
      "mean_anomaly_deg": 84.4714,
      "mean_motion_rev_day": 15.27635784
    },
    {
      "epoch": "2026-03-30T12:50:42.513792Z",
      "apogee_km": 484.2245710018642,
      "perigee_km": 481.9337481505054,
      "latitude_deg": -4.140271869520051e-06,
      "longitude_deg": 153.99139872628987,
      "height_km": 482.75177614482516,
      "semi_major_axis_km": 6861.2161595761845,
      "eccentricity": 0.00016694,
      "inclination_deg": 42.9996,
      "raan_deg": 174.5941,
      "arg_perigee_deg": 275.223,
      "mean_anomaly_deg": 84.8431,
      "mean_motion_rev_day": 15.2756996
    },
    {
      "epoch": "2026-03-31T12:23:02.778432Z",
      "apogee_km": 483.76545208334755,
      "perigee_km": 482.1316903871257,
      "latitude_deg": -2.0147260455169495e-05,
      "longitude_deg": 154.4025360821943,
      "height_km": 482.69006457332875,
      "semi_major_axis_km": 6861.085571235236,
      "eccentricity": 0.00011906,
      "inclination_deg": 43.0,
      "raan_deg": 169.0564,
      "arg_perigee_deg": 272.4581,
      "mean_anomaly_deg": 87.6134,
      "mean_motion_rev_day": 15.27613572
    },
    {
      "epoch": "2026-04-01T15:03:42.708960Z",
      "apogee_km": 484.0477571709671,
      "perigee_km": 482.04154765580097,
      "latitude_deg": -3.8841251986704767e-05,
      "longitude_deg": 106.8622237886402,
      "height_km": 483.1855649306167,
      "semi_major_axis_km": 6861.181652413384,
      "eccentricity": 0.0001462,
      "inclination_deg": 42.9993,
      "raan_deg": 162.7781,
      "arg_perigee_deg": 248.7007,
      "mean_anomaly_deg": 111.3688,
      "mean_motion_rev_day": 15.27581484
    },
    {
      "epoch": "2026-04-02T20:52:40.725984Z",
      "apogee_km": 483.51352785243125,
      "perigee_km": 482.36635578775986,
      "latitude_deg": 7.045235416688478e-06,
      "longitude_deg": 11.378231823655685,
      "height_km": 482.7244383893174,
      "semi_major_axis_km": 6861.076941820095,
      "eccentricity": 8.36e-05,
      "inclination_deg": 43.0048,
      "raan_deg": 155.7603,
      "arg_perigee_deg": 269.2254,
      "mean_anomaly_deg": 90.8502,
      "mean_motion_rev_day": 15.27616454
    },
    {
      "epoch": "2026-04-03T12:34:13.933632Z",
      "apogee_km": 483.96073284749946,
      "perigee_km": 481.91915079269165,
      "latitude_deg": 4.846118248546141e-05,
      "longitude_deg": 131.65284039376004,
      "height_km": 482.5217102465147,
      "semi_major_axis_km": 6861.076941820095,
      "eccentricity": 0.00014878,
      "inclination_deg": 43.0037,
      "raan_deg": 152.0677,
      "arg_perigee_deg": 281.0365,
      "mean_anomaly_deg": 79.032,
      "mean_motion_rev_day": 15.27616454
    },
    {
      "epoch": "2026-04-04T12:06:35.898624Z",
      "apogee_km": 484.5563436304774,
      "perigee_km": 481.5629407594206,
      "latitude_deg": 4.0299330566699334e-05,
      "longitude_deg": 132.0570801434471,
      "height_km": 482.9505317204392,
      "semi_major_axis_km": 6861.196642194948,
      "eccentricity": 0.00021814,
      "inclination_deg": 43.0032,
      "raan_deg": 146.5302,
      "arg_perigee_deg": 265.6605,
      "mean_anomaly_deg": 94.3998,
      "mean_motion_rev_day": 15.27576478
    },
    {
      "epoch": "2026-04-05T13:13:07.609728Z",
      "apogee_km": 484.05250356061606,
      "perigee_km": 482.110367070316,
      "latitude_deg": 1.8648956043261535e-06,
      "longitude_deg": 108.48512597331695,
      "height_km": 482.93745585125043,
      "semi_major_axis_km": 6861.218435315465,
      "eccentricity": 0.00014153,
      "inclination_deg": 43.0004,
      "raan_deg": 140.6216,
      "arg_perigee_deg": 265.3173,
      "mean_anomaly_deg": 94.7517,
      "mean_motion_rev_day": 15.275692
    }
  ]
}